[{"OBJECT_NAME":"SZ-21 MODULE","OBJECT_ID":"2025-246C","EPOCH":"2026-03-10T09:24:12.315744","MEAN_MOTION":15.68612654,"ECCENTRICITY":0.00013212,"INCLINATION":41.4733,"RA_OF_ASC_NODE":199.0379,"ARG_OF_PERICENTER":300.4317,"MEAN_ANOMALY":59.6394,"EPHEMERIS_TYPE":0,"CLASSIFICATION_TYPE":"U","NORAD_CAT_ID":66515,"ELEMENT_SET_NO":999,"REV_AT_EPOCH":1818,"BSTAR":0.00039494604,"MEAN_MOTION_DOT":0.00046134,"MEAN_MOTION_DDOT":0},{"OBJECT_NAME":"SHENZHOU-22","OBJECT_ID":"2025-272A","EPOCH":"2026-03-11T07:34:04.372896","MEAN_MOTION":15.60754326,"ECCENTRICITY":0.00069247,"INCLINATION":41.466,"RA_OF_ASC_NODE":198.2695,"ARG_OF_PERICENTER":282.6574,"MEAN_ANOMALY":77.349,"EPHEMERIS_TYPE":0,"CLASSIFICATION_TYPE":"U","NORAD_CAT_ID":66645,"ELEMENT_SET_NO":999,"REV_AT_EPOCH":26752,"BSTAR":0.0003298799,"MEAN_MOTION_DOT":0.00028032,"MEAN_MOTION_DDOT":0},{"OBJECT_NAME":"SOYUZ-MS 28","OBJECT_ID":"2025-275A","EPOCH":"2026-03-11T04:35:18.514464","MEAN_MOTION":15.48575655,"ECCENTRICITY":0.00079324,"INCLINATION":51.6325,"RA_OF_ASC_NODE":64.9326,"ARG_OF_PERICENTER":179.9008,"MEAN_ANOMALY":180.1983,"EPHEMERIS_TYPE":0,"CLASSIFICATION_TYPE":"U","NORAD_CAT_ID":66664,"ELEMENT_SET_NO":999,"REV_AT_EPOCH":55452,"BSTAR":0.00017769709,"MEAN_MOTION_DOT":9.215e-5,"MEAN_MOTION_DDOT":0},{"OBJECT_NAME":"DUPLEX","OBJECT_ID":"1998-067XS","EPOCH":"2026-03-11T04:35:45.013344","MEAN_MOTION":15.56334996,"ECCENTRICITY":0.00025436,"INCLINATION":51.6293,"RA_OF_ASC_NODE":61.9382,"ARG_OF_PERICENTER":119.465,"MEAN_ANOMALY":240.6595,"EPHEMERIS_TYPE":0,"CLASSIFICATION_TYPE":"U","NORAD_CAT_ID":66906,"ELEMENT_SET_NO":999,"REV_AT_EPOCH":1536,"BSTAR":0.00056316723,"MEAN_MOTION_DOT":0.00040148,"MEAN_MOTION_DDOT":0},{"OBJECT_NAME":"ISS OBJECT XT","OBJECT_ID":"1998-067XT","EPOCH":"2026-03-11T05:43:09.095808","MEAN_MOTION":15.69794721,"ECCENTRICITY":0.00047452,"INCLINATION":51.6251,"RA_OF_ASC_NODE":57.7346,"ARG_OF_PERICENTER":87.9438,"MEAN_ANOMALY":272.2103,"EPHEMERIS_TYPE":0,"CLASSIFICATION_TYPE":"U","NORAD_CAT_ID":66907,"ELEMENT_SET_NO":999,"REV_AT_EPOCH":1542,"BSTAR":0.0014361312,"MEAN_MOTION_DOT":0.00178159,"MEAN_MOTION_DDOT":0},{"OBJECT_NAME":"ISS OBJECT XU","OBJECT_ID":"1998-067XU","EPOCH":"2026-03-11T04:08:43.061568","MEAN_MOTION":15.69895705,"ECCENTRICITY":0.00048972,"INCLINATION":51.6261,"RA_OF_ASC_NODE":58.0443,"ARG_OF_PERICENTER":89.2541,"MEAN_ANOMALY":270.9017,"EPHEMERIS_TYPE":0,"CLASSIFICATION_TYPE":"U","NORAD_CAT_ID":66908,"ELEMENT_SET_NO":999,"REV_AT_EPOCH":1541,"BSTAR":0.0014502749,"MEAN_MOTION_DOT":0.00180739,"MEAN_MOTION_DDOT":0},{"OBJECT_NAME":"SILVERSAT","OBJECT_ID":"1998-067XV","EPOCH":"2026-03-11T05:37:58.521504","MEAN_MOTION":15.72937624,"ECCENTRICITY":0.00054664,"INCLINATION":51.625,"RA_OF_ASC_NODE":56.9557,"ARG_OF_PERICENTER":87.1357,"MEAN_ANOMALY":273.0267,"EPHEMERIS_TYPE":0,"CLASSIFICATION_TYPE":"U","NORAD_CAT_ID":66909,"ELEMENT_SET_NO":999,"REV_AT_EPOCH":1543,"BSTAR":0.0016574236,"MEAN_MOTION_DOT":0.00236525,"MEAN_MOTION_DDOT":0},{"OBJECT_NAME":"ISS OBJECT XW","OBJECT_ID":"1998-067XW","EPOCH":"2026-03-11T05:36:44.038656","MEAN_MOTION":15.69081269,"ECCENTRICITY":0.00053156,"INCLINATION":51.6252,"RA_OF_ASC_NODE":57.6975,"ARG_OF_PERICENTER":95.4804,"MEAN_ANOMALY":264.6799,"EPHEMERIS_TYPE":0,"CLASSIFICATION_TYPE":"U","NORAD_CAT_ID":66910,"ELEMENT_SET_NO":999,"REV_AT_EPOCH":1542,"BSTAR":0.0013202803,"MEAN_MOTION_DOT":0.00158614,"MEAN_MOTION_DDOT":0},{"OBJECT_NAME":"ISS OBJECT XX","OBJECT_ID":"1998-067XX","EPOCH":"2026-03-11T03:57:51.222816","MEAN_MOTION":15.76233813,"ECCENTRICITY":0.00070692,"INCLINATION":51.6235,"RA_OF_ASC_NODE":56.4689,"ARG_OF_PERICENTER":92.6185,"MEAN_ANOMALY":267.5624,"EPHEMERIS_TYPE":0,"CLASSIFICATION_TYPE":"U","NORAD_CAT_ID":66911,"ELEMENT_SET_NO":999,"REV_AT_EPOCH":1542,"BSTAR":0.0018152438,"MEAN_MOTION_DOT":0.00301388,"MEAN_MOTION_DDOT":0},{"OBJECT_NAME":"ISS OBJECT XY","OBJECT_ID":"1998-067XY","EPOCH":"2026-03-10T23:42:00.286848","MEAN_MOTION":15.63960594,"ECCENTRICITY":0.0003215,"INCLINATION":51.627,"RA_OF_ASC_NODE":60.571,"ARG_OF_PERICENTER":94.9911,"MEAN_ANOMALY":265.1451,"EPHEMERIS_TYPE":0,"CLASSIFICATION_TYPE":"U","NORAD_CAT_ID":66912,"ELEMENT_SET_NO":999,"REV_AT_EPOCH":1535,"BSTAR":0.0011051,"MEAN_MOTION_DOT":0.00107127,"MEAN_MOTION_DDOT":0},{"OBJECT_NAME":"KNACKSAT-2","OBJECT_ID":"1998-067XZ","EPOCH":"2026-03-11T06:33:15.026112","MEAN_MOTION":15.51967265,"ECCENTRICITY":0.00094729,"INCLINATION":51.6311,"RA_OF_ASC_NODE":63.981,"ARG_OF_PERICENTER":191.435,"MEAN_ANOMALY":168.6426,"EPHEMERIS_TYPE":0,"CLASSIFICATION_TYPE":"U","NORAD_CAT_ID":67683,"ELEMENT_SET_NO":999,"REV_AT_EPOCH":503,"BSTAR":0.00070522783,"MEAN_MOTION_DOT":0.00043008,"MEAN_MOTION_DDOT":0},{"OBJECT_NAME":"GXIBA-1","OBJECT_ID":"1998-067YA","EPOCH":"2026-03-11T04:17:40.805664","MEAN_MOTION":15.54589143,"ECCENTRICITY":0.00111005,"INCLINATION":51.6309,"RA_OF_ASC_NODE":64.1034,"ARG_OF_PERICENTER":180.7546,"MEAN_ANOMALY":179.343,"EPHEMERIS_TYPE":0,"CLASSIFICATION_TYPE":"U","NORAD_CAT_ID":67684,"ELEMENT_SET_NO":999,"REV_AT_EPOCH":502,"BSTAR":0.0012587252,"MEAN_MOTION_DOT":0.00085374,"MEAN_MOTION_DDOT":0},{"OBJECT_NAME":"CORAL","OBJECT_ID":"1998-067YB","EPOCH":"2026-03-11T04:53:37.292640","MEAN_MOTION":15.52342723,"ECCENTRICITY":0.00115013,"INCLINATION":51.6308,"RA_OF_ASC_NODE":64.2697,"ARG_OF_PERICENTER":187.8017,"MEAN_ANOMALY":172.2796,"EPHEMERIS_TYPE":0,"CLASSIFICATION_TYPE":"U","NORAD_CAT_ID":67685,"ELEMENT_SET_NO":999,"REV_AT_EPOCH":502,"BSTAR":0.00078081866,"MEAN_MOTION_DOT":0.00048395,"MEAN_MOTION_DDOT":0},{"OBJECT_NAME":"ISS OBJECT YC","OBJECT_ID":"1998-067YC","EPOCH":"2026-03-11T06:17:33.846720","MEAN_MOTION":15.52919663,"ECCENTRICITY":0.00080599,"INCLINATION":51.6312,"RA_OF_ASC_NODE":63.9104,"ARG_OF_PERICENTER":156.2527,"MEAN_ANOMALY":203.8836,"EPHEMERIS_TYPE":0,"CLASSIFICATION_TYPE":"U","NORAD_CAT_ID":67686,"ELEMENT_SET_NO":999,"REV_AT_EPOCH":503,"BSTAR":0.0009331757,"MEAN_MOTION_DOT":0.00059157,"MEAN_MOTION_DDOT":0},{"OBJECT_NAME":"LEOPARD","OBJECT_ID":"1998-067YD","EPOCH":"2026-03-11T04:56:54.386592","MEAN_MOTION":15.52145288,"ECCENTRICITY":0.00079447,"INCLINATION":51.632,"RA_OF_ASC_NODE":64.2868,"ARG_OF_PERICENTER":159.2557,"MEAN_ANOMALY":200.8756,"EPHEMERIS_TYPE":0,"CLASSIFICATION_TYPE":"U","NORAD_CAT_ID":67687,"ELEMENT_SET_NO":999,"REV_AT_EPOCH":494,"BSTAR":0.00074305303,"MEAN_MOTION_DOT":0.00045624,"MEAN_MOTION_DDOT":0},{"OBJECT_NAME":"ISS OBJECT YE","OBJECT_ID":"1998-067YE","EPOCH":"2026-03-11T06:21:32.046336","MEAN_MOTION":15.5265526,"ECCENTRICITY":0.00079879,"INCLINATION":51.6312,"RA_OF_ASC_NODE":63.9293,"ARG_OF_PERICENTER":156.8543,"MEAN_ANOMALY":203.2808,"EPHEMERIS_TYPE":0,"CLASSIFICATION_TYPE":"U","NORAD_CAT_ID":67688,"ELEMENT_SET_NO":999,"REV_AT_EPOCH":495,"BSTAR":0.00089905258,"MEAN_MOTION_DOT":0.00056411,"MEAN_MOTION_DDOT":0}]
